ORBCOMM FM115           
1 41186U 15081H   25272.36310469  .00001746  00000+0  37372-3 0  9997
2 41186  46.9981 264.0331 0001125 241.2764 118.8011 14.62689291523023
ORBCOMM FM108           
1 41187U 15081J   25272.58939593  .00002300  00000+0  52826-3 0  9995
2 41187  47.0054 333.8679 0001289  66.5500 293.5522 14.58352975522033
ORBCOMM FM117           
1 41188U 15081K   25272.89823625  .00001929  00000+0  44900-3 0  9998
2 41188  47.0016 331.1370 0001856  89.0399 271.0700 14.58347630522128
ORBCOMM FM116           
1 41189U 15081L   25272.74501550  .00001631  00000+0  38467-3 0  9994
2 41189  47.0025  61.6610 0002253 272.3651  87.6977 14.58416580520914
